NORAD_CAT_ID,OBJECT_NAME,OBJECT_TYPE,EPOCH,MEAN_MOTION,ECCENTRICITY,INCLINATION,RA_OF_ASC_NODE,ARG_OF_PERICENTER,MEAN_ANOMALY,BSTAR,MEAN_MOTION_DOT,MEAN_MOTION_DDOT,TLE_LINE0,TLE_LINE1,TLE_LINE2,SEMIMAJOR_AXIS,PERIOD,APOGEE,PERIGEE,DECAYED
54078.0,STARLINK-5138,PAYLOAD,2024-01-25 17:31:34,15.0884249,0.000128,53.2163,198.5127,94.3402,265.7736,6.9762e-05,8.23e-06,0.0,0 STARLINK-5138,1 54078U 22136AD  24025.73026571  .00000823  00000-0  69762-4 0  9999,2 54078  53.2163 198.5127 0001280  94.3402 265.7736 15.08842490 70769,6917.873,95.437,540.623,538.852,0.0
54078.0,STARLINK-5138,PAYLOAD,2024-01-27 10:51:36,15.08843801,0.0001739,53.2163,190.7848,48.9552,311.159,8.7665e-05,1.108e-05,0.0,0 STARLINK-5138,1 54078U 22136AD  24027.45250620  .00001108  00000-0  87665-4 0  9993,2 54078  53.2163 190.7848 0001739  48.9552 311.1590 15.08843801 71024,6917.869,95.437,540.937,538.531,0.0
54078.0,STARLINK-5138,PAYLOAD,2024-01-27 14:02:22,15.08843078,0.0001432,53.2163,190.1886,60.9726,299.141,7.4275e-05,8.94e-06,0.0,0 STARLINK-5138,1 54078U 22136AD  24027.58498561  .00000894  00000-0  74275-4 0  9999,2 54078  53.2163 190.1886 0001432  60.9726 299.1410 15.08843078 70567,6917.871,95.437,540.727,538.745,0.0
54078.0,STARLINK-5138,PAYLOAD,2024-01-27 20:23:54,15.08844541,0.0001199,53.2163,188.9968,86.5987,273.5143,6.835e-05,8e-06,0.0,0 STARLINK-5138,1 54078U 22136AD  24027.84994181  .00000800  00000-0  68350-4 0  9991,2 54078  53.2163 188.9968 0001199  86.5987 273.5143 15.08844541 70606,6917.867,95.437,540.561,538.902,0.0
54078.0,STARLINK-5138,PAYLOAD,2024-01-28 10:42:23,15.088455,0.0001419,53.2163,186.3201,97.0549,263.0604,-0.00010442,-1.95e-05,0.0,0 STARLINK-5138,1 54078U 22136AD  24028.44610790 -.00001950  00000-0 -10442-3 0  9996,2 54078  53.2163 186.3201 0001419  97.0549 263.0604 15.08845500 71179,6917.864,95.437,540.71,538.747,0.0
54078.0,STARLINK-5138,PAYLOAD,2024-01-28 13:53:09,15.08833751,0.0001358,53.2164,185.7256,105.8405,254.2737,7.979e-05,9.82e-06,0.0,0 STARLINK-5138,1 54078U 22136AD  24028.57858718  .00000982  00000-0  79790-4 0  9998,2 54078  53.2164 185.7256 0001358 105.8405 254.2737 15.08833751 70717,6917.899,95.438,540.704,538.825,0.0
54078.0,STARLINK-5138,PAYLOAD,2024-01-28 17:03:56,15.08838392,0.0001401,53.2171,185.1316,98.0805,262.0346,1.051e-05,-1.21e-06,0.0,0 STARLINK-5138,1 54078U 22136AD  24028.71106720 -.00000121  00000-0  10510-4 0  9994,2 54078  53.2171 185.1316 0001401  98.0805 262.0346 15.08838392 70733,6917.885,95.438,540.719,538.781,0.0
54078.0,STARLINK-5138,PAYLOAD,2024-01-29 10:33:10,15.08839973,0.0001375,53.217,181.86,102.773,257.3416,4.6624e-05,4.54e-06,0.0,0 STARLINK-5138,1 54078U 22136AD  24029.43970548  .00000454  00000-0  46624-4 0  9994,2 54078  53.2170 181.8600 0001375 102.7730 257.3416 15.08839973 70844,6917.88,95.438,540.697,538.794,0.0
54078.0,STARLINK-5138,PAYLOAD,2024-01-30 10:23:57,15.08836814,0.0001265,53.2174,177.3997,99.521,260.5925,4.8833e-05,4.89e-06,0.0,0 STARLINK-5138,1 54078U 22136AD  24030.43330965  .00000489  00000-0  48833-4 0  9991,2 54078  53.2174 177.3997 0001265  99.5210 260.5925 15.08836814 71473,6917.89,95.438,540.63,538.88,0.0
54078.0,STARLINK-5138,PAYLOAD,2024-01-30 13:34:44,15.08834981,0.0001284,53.2172,176.8057,96.8256,263.2882,3.6848e-05,2.99e-06,0.0,0 STARLINK-5138,1 54078U 22136AD  24030.56579157  .00000299  00000-0  36848-4 0  9995,2 54078  53.2172 176.8057 0001284  96.8256 263.2882 15.08834981 71018,6917.896,95.438,540.649,538.872,0.0
54078.0,STARLINK-5138,PAYLOAD,2024-01-30 16:45:30,15.08837662,0.0001337,53.2174,176.2113,98.0023,262.1121,5.8729e-05,6.47e-06,0.0,0 STARLINK-5138,1 54078U 22136AD  24030.69826948  .00000647  00000-0  58729-4 0  9991,2 54078  53.2174 176.2113 0001337  98.0023 262.1121 15.08837662 71037,6917.888,95.438,540.677,538.828,0.0
54078.0,STARLINK-5138,PAYLOAD,2024-01-31 10:14:45,15.08832401,0.0001988,53.2184,172.9423,100.1547,259.967,2.5318e-05,1.15e-06,0.0,0 STARLINK-5138,1 54078U 22136AD  24031.42691677  .00000115  00000-0  25318-4 0  9990,2 54078  53.2184 172.9423 0001988 100.1547 259.9670 15.08832401 71144,6917.904,95.438,541.144,538.393,0.0
54078.0,STARLINK-5138,PAYLOAD,2024-02-02 08:20:55,15.0884301,0.0001359,53.2177,164.3167,97.4558,262.6589,6.5594e-05,7.56e-06,0.0,0 STARLINK-5138,1 54078U 22136AD  24033.34787023  .00000756  00000-0  65594-4 0  9995,2 54078  53.2177 164.3167 0001359  97.4558 262.6589 15.08843010 71911,6917.871,95.437,540.676,538.796,0.0
54078.0,STARLINK-5138,PAYLOAD,2024-02-02 14:42:28,15.08846597,0.0001433,53.218,163.1267,92.6748,267.4409,9.7196e-05,1.26e-05,0.0,0 STARLINK-5138,1 54078U 22136AD  24033.61282757  .00001260  00000-0  97196-4 0  9993,2 54078  53.2180 163.1267 0001433  92.6748 267.4409 15.08846597 71472,6917.86,95.437,540.717,538.734,0.0
54078.0,STARLINK-5138,PAYLOAD,2024-02-02 16:17:51,15.08846766,0.0001343,53.2174,162.831,76.1213,283.9928,0.00011438,1.533e-05,0.0,0 STARLINK-5138,1 54078U 22136AD  24033.67906878  .00001533  00000-0  11438-3 0  9993,2 54078  53.2174 162.8310 0001343  76.1213 283.9928 15.08846766 71482,6917.86,95.437,540.654,538.796,0.0
54078.0,STARLINK-5138,PAYLOAD,2024-02-03 12:57:52,15.08839059,0.0001507,53.2187,158.9673,80.2511,279.8651,4.0545e-05,3.57e-06,0.0,0 STARLINK-5138,1 54078U 22136AD  24034.54019436  .00000357  00000-0  40545-4 0  9990,2 54078  53.2187 158.9673 0001507  80.2511 279.8651 15.08839059 71612,6917.883,95.438,540.791,538.706,0.0
54078.0,STARLINK-5138,PAYLOAD,2024-02-03 14:33:15,15.08845446,0.0001476,53.2175,158.6683,70.9045,289.2107,4.7972e-06,-2.12e-06,0.0,0 STARLINK-5138,1 54078U 22136AD  24034.60643450 -.00000212  00000-0  47972-5 0  9999,2 54078  53.2175 158.6683 0001476  70.9045 289.2107 15.08845446 72103,6917.864,95.437,540.75,538.708,0.0
54078.0,STARLINK-5138,PAYLOAD,2024-02-04 14:24:02,15.08844521,0.0001531,53.2175,154.2088,87.3025,272.8143,6.1274e-05,6.87e-06,0.0,0 STARLINK-5138,1 54078U 22136AD  24035.60002973  .00000687  00000-0  61274-4 0  9994,2 54078  53.2175 154.2088 0001531  87.3025 272.8143 15.08844521 71779,6917.867,95.437,540.791,538.672,0.0
54078.0,STARLINK-5138,PAYLOAD,2024-02-05 11:04:03,15.08836868,0.0001581,53.2171,150.3427,88.9552,271.1621,3.6935e-05,3e-06,0.0,0 STARLINK-5138,1 54078U 22136AD  24036.46115529  .00000300  00000-0  36935-4 0  9999,2 54078  53.2171 150.3427 0001581  88.9552 271.1621 15.08836868 72382,6917.89,95.438,540.849,538.661,0.0
54078.0,STARLINK-5138,PAYLOAD,2024-02-05 14:14:49,15.08840002,0.0001528,53.2172,149.7473,94.1594,265.9573,5.6439e-05,6.1e-06,0.0,0 STARLINK-5138,1 54078U 22136AD  24036.59363252  .00000610  00000-0  56439-4 0  9996,2 54078  53.2172 149.7473 0001528  94.1594 265.9573 15.08840002 71923,6917.88,95.438,540.802,538.688,0.0
54078.0,STARLINK-5138,PAYLOAD,2024-02-06 14:05:36,15.08846328,0.0001482,53.2181,145.2893,92.7947,267.3215,8.8992e-05,1.129e-05,0.0,0 STARLINK-5138,1 54078U 22136AD  24037.58722885  .00001129  00000-0  88992-4 0  9992,2 54078  53.2181 145.2893 0001482  92.7947 267.3215 15.08846328 72078,6917.861,95.437,540.751,538.701,0.0
54078.0,STARLINK-5138,PAYLOAD,2024-02-07 12:21:01,15.08836408,0.0001603,53.2178,141.1238,106.1594,253.9574,1.0126e-05,-1.27e-06,0.0,0 STARLINK-5138,1 54078U 22136AD  24038.51459774 -.00000127  00000-0  10126-4 0  9992,2 54078  53.2178 141.1238 0001603 106.1594 253.9574 15.08836408 72690,6917.891,95.438,540.865,538.647,0.0
54078.0,STARLINK-5138,PAYLOAD,2024-02-07 13:56:24,15.08838201,0.0001294,53.217,140.8273,86.1802,273.9338,4.385e-05,4.1e-06,0.0,0 STARLINK-5138,1 54078U 22136AD  24038.58083623  .00000410  00000-0  43850-4 0  9999,2 54078  53.2170 140.8273 0001294  86.1802 273.9338 15.08838201 72224,6917.886,95.438,540.646,538.856,0.0
54078.0,STARLINK-5138,PAYLOAD,2024-02-08 13:47:11,15.08840284,0.0001473,53.2169,136.3711,104.8185,255.297,-2.0489e-05,-6.14e-06,0.0,0 STARLINK-5138,1 54078U 22136AD  24039.57444209 -.00000614  00000-0 -20489-4 0  9991,2 54078  53.2169 136.3711 0001473 104.8185 255.2970 15.08840284 72375,6917.88,95.438,540.764,538.726,0.0
54078.0,STARLINK-5138,PAYLOAD,2024-02-09 13:37:58,15.08838578,0.0001583,53.2178,131.9076,72.2427,287.8738,0.00013421,1.849e-05,0.0,0 STARLINK-5138,1 54078U 22136AD  24040.56804381  .00001849  00000-0  13421-3 0  9999,2 54078  53.2178 131.9076 0001583  72.2427 287.8738 15.08838578 72522,6917.885,95.438,540.845,538.655,0.0
54078.0,STARLINK-5138,PAYLOAD,2024-02-09 15:13:21,15.0884698,0.0001437,53.2172,131.6074,94.5632,265.5524,0.00016427,2.328e-05,0.0,0 STARLINK-5138,1 54078U 22136AD  24040.63427520  .00002328  00000-0  16427-3 0  9995,2 54078  53.2172 131.6074 0001437  94.5632 265.5524 15.08846980 73011,6917.859,95.437,540.718,538.73,0.0
54078.0,STARLINK-5138,PAYLOAD,2024-02-10 11:53:22,15.08843097,0.0001796,53.2181,127.7451,81.2627,278.8568,0.00010396,1.367e-05,0.0,0 STARLINK-5138,1 54078U 22136AD  24041.49540342  .00001367  00000-0  10396-3 0  9999,2 54078  53.2181 127.7451 0001796  81.2627 278.8568 15.08843097 73146,6917.871,95.437,540.978,538.493,0.0
54078.0,STARLINK-5138,PAYLOAD,2024-02-10 13:28:45,15.08847509,0.0001742,53.2176,127.4479,71.3934,288.7247,0.00013565,1.872e-05,0.0,0 STARLINK-5138,1 54078U 22136AD  24041.56164042  .00001872  00000-0  13565-3 0  9998,2 54078  53.2176 127.4479 0001742  71.3934 288.7247 15.08847509 72672,6917.857,95.437,540.928,538.517,0.0
54078.0,STARLINK-5138,PAYLOAD,2024-02-11 11:44:09,15.08850936,0.000155,53.2166,123.2804,93.8712,266.2457,4.3331e-05,4.02e-06,0.0,0 STARLINK-5138,1 54078U 22136AD  24042.48899644  .00000402  00000-0  43331-4 0  9996,2 54078  53.2166 123.2804 0001550  93.8712 266.2457 15.08850936 72815,6917.847,95.437,540.784,538.64,0.0
54078.0,STARLINK-5138,PAYLOAD,2024-02-11 14:54:54,15.08859075,0.000144,53.2164,122.6838,104.7444,255.3708,9.8358e-05,1.279e-05,0.0,0 STARLINK-5138,1 54078U 22136AD  24042.62146831  .00001279  00000-0  98358-4 0  9997,2 54078  53.2164 122.6838 0001440 104.7444 255.3708 15.08859075 73312,6917.822,95.436,540.683,538.691,0.0
